{
  "type": "FeatureCollection",
  "features": [
    {
      "type": "Feature",
      "properties": {
        "norad_id": 34814,
        "name": "COSMOS 2251 DEB",
        "group": "cosmos-2251-debris",
        "lat": -20.145073443537797,
        "lon": -37.029425785655754,
        "alt_km": 793.7223305516327,
        "timestamp": "2025-12-10T18:57:00.460267+00:00",
        "meta_object_name": "COSMOS 2251 DEB",
        "meta_object_id": "1993-036ABD",
        "meta_epoch": "2025-12-10T09:43:34.915008",
        "meta_mean_motion": 14.36877129,
        "meta_eccentricity": 0.0056365,
        "meta_inclination": 73.896,
        "meta_ra_of_asc_node": 329.7665,
        "meta_arg_of_pericenter": 219.7218,
        "meta_mean_anomaly": 291.6009,
        "meta_ephemeris_type": 0,
        "meta_classification_type": "U",
        "meta_norad_cat_id": 34814,
        "meta_element_set_no": 999,
        "meta_rev_at_epoch": 87299,
        "meta_bstar": 0.0011962,
        "meta_mean_motion_dot": 3.577e-05,
        "meta_mean_motion_ddot": 0,
        "tle_line1": "1 34814U 93036ABD 25344.40526522  .00003577  00000+0  11962-2 0  9997",
        "tle_line2": "2 34814  73.8960 329.7665 0056365 219.7218 291.6009 14.36877129872998"
      },
      "geometry": {
        "type": "Point",
        "coordinates": [
          -37.029425785655754,
          -20.145073443537797
        ]
      }
    },
    {
      "type": "Feature",
      "properties": {
        "norad_id": 34815,
        "name": "COSMOS 2251 DEB",
        "group": "cosmos-2251-debris",
        "lat": -22.11784667755556,
        "lon": 72.30769928203527,
        "alt_km": 655.2274179244196,
        "timestamp": "2025-12-10T18:57:00.460277+00:00",
        "meta_object_name": "COSMOS 2251 DEB",
        "meta_object_id": "1993-036ABE",
        "meta_epoch": "2025-12-09T11:10:12.352800",
        "meta_mean_motion": 14.78241415,
        "meta_eccentricity": 0.00588661,
        "meta_inclination": 74.0452,
        "meta_ra_of_asc_node": 248.2294,
        "meta_arg_of_pericenter": 318.1055,
        "meta_mean_anomaly": 41.5622,
        "meta_ephemeris_type": 0,
        "meta_classification_type": "U",
        "meta_norad_cat_id": 34815,
        "meta_element_set_no": 999,
        "meta_rev_at_epoch": 88579,
        "meta_bstar": 0.0013749046,
        "meta_mean_motion_dot": 0.00010252,
        "meta_mean_motion_ddot": 0,
        "tle_line1": "1 34815U 93036ABE 25343.46542075  .00010252  00000+0  13749-2 0  9997",
        "tle_line2": "2 34815  74.0452 248.2294 0058866 318.1055  41.5622 14.78241415885796"
      },
      "geometry": {
        "type": "Point",
        "coordinates": [
          72.30769928203527,
          -22.11784667755556
        ]
      }
    },
    {
      "type": "Feature",
      "properties": {
        "norad_id": 34816,
        "name": "COSMOS 2251 DEB",
        "group": "cosmos-2251-debris",
        "lat": -70.82154729868138,
        "lon": 90.09237113893631,
        "alt_km": 942.5025805810183,
        "timestamp": "2025-12-10T18:57:00.460287+00:00",
        "meta_object_name": "COSMOS 2251 DEB",
        "meta_object_id": "1993-036ABF",
        "meta_epoch": "2025-12-06T22:26:27.336768",
        "meta_mean_motion": 13.5829822,
        "meta_eccentricity": 0.03736298,
        "meta_inclination": 73.886,
        "meta_ra_of_asc_node": 152.5929,
        "meta_arg_of_pericenter": 218.068,
        "meta_mean_anomaly": 297.1187,
        "meta_ephemeris_type": 0,
        "meta_classification_type": "U",
        "meta_norad_cat_id": 34816,
        "meta_element_set_no": 999,
        "meta_rev_at_epoch": 82704,
        "meta_bstar": 0.0017880706,
        "meta_mean_motion_dot": 2.026e-05,
        "meta_mean_motion_ddot": 0,
        "tle_line1": "1 34816U 93036ABF 25340.93503862  .00002026  00000+0  17881-2 0  9999",
        "tle_line2": "2 34816  73.8860 152.5929 0373629 218.0680 297.1187 13.58298220827040"
      },
      "geometry": {
        "type": "Point",
        "coordinates": [
          90.09237113893631,
          -70.82154729868138
        ]
      }
    },
    {
      "type": "Feature",
      "properties": {
        "norad_id": 34818,
        "name": "COSMOS 2251 DEB",
        "group": "cosmos-2251-debris",
        "lat": 47.182245524543674,
        "lon": -41.479787509796665,
        "alt_km": 749.6065165406808,
        "timestamp": "2025-12-10T18:57:00.460297+00:00",
        "meta_object_name": "COSMOS 2251 DEB",
        "meta_object_id": "1993-036ABH",
        "meta_epoch": "2025-12-10T07:44:16.027008",
        "meta_mean_motion": 14.36962335,
        "meta_eccentricity": 0.0024056,
        "meta_inclination": 74.0356,
        "meta_ra_of_asc_node": 301.3836,
        "meta_arg_of_pericenter": 17.6421,
        "meta_mean_anomaly": 136.2189,
        "meta_ephemeris_type": 0,
        "meta_classification_type": "U",
        "meta_norad_cat_id": 34818,
        "meta_element_set_no": 999,
        "meta_rev_at_epoch": 87335,
        "meta_bstar": 0.0003859,
        "meta_mean_motion_dot": 1.121e-05,
        "meta_mean_motion_ddot": 0,
        "tle_line1": "1 34818U 93036ABH 25344.32240772  .00001121  00000+0  38590-3 0  9992",
        "tle_line2": "2 34818  74.0356 301.3836 0024056  17.6421 136.2189 14.36962335873351"
      },
      "geometry": {
        "type": "Point",
        "coordinates": [
          -41.479787509796665,
          47.182245524543674
        ]
      }
    },
    {
      "type": "Feature",
      "properties": {
        "norad_id": 34819,
        "name": "COSMOS 2251 DEB",
        "group": "cosmos-2251-debris",
        "lat": 39.887841102447766,
        "lon": -47.449363732626736,
        "alt_km": 679.4374738214483,
        "timestamp": "2025-12-10T18:57:00.460307+00:00",
        "meta_object_name": "COSMOS 2251 DEB",
        "meta_object_id": "1993-036ABJ",
        "meta_epoch": "2025-12-09T21:41:51.224640",
        "meta_mean_motion": 14.63892789,
        "meta_eccentricity": 0.00157861,
        "meta_inclination": 74.0186,
        "meta_ra_of_asc_node": 148.1101,
        "meta_arg_of_pericenter": 242.0271,
        "meta_mean_anomaly": 271.3932,
        "meta_ephemeris_type": 0,
        "meta_classification_type": "U",
        "meta_norad_cat_id": 34819,
        "meta_element_set_no": 999,
        "meta_rev_at_epoch": 88187,
        "meta_bstar": 0.0022468866,
        "meta_mean_motion_dot": 0.00011759,
        "meta_mean_motion_ddot": 0,
        "tle_line1": "1 34819U 93036ABJ 25343.90406510  .00011759  00000+0  22469-2 0  9995",
        "tle_line2": "2 34819  74.0186 148.1101 0015786 242.0271 271.3932 14.63892789881870"
      },
      "geometry": {
        "type": "Point",
        "coordinates": [
          -47.449363732626736,
          39.887841102447766
        ]
      }
    },
    {
      "type": "Feature",
      "properties": {
        "norad_id": 34823,
        "name": "COSMOS 2251 DEB",
        "group": "cosmos-2251-debris",
        "lat": -64.85423519060772,
        "lon": -36.467104365899154,
        "alt_km": 658.82334914493,
        "timestamp": "2025-12-10T18:57:00.460317+00:00",
        "meta_object_name": "COSMOS 2251 DEB",
        "meta_object_id": "1993-036ABN",
        "meta_epoch": "2025-12-10T09:33:26.201088",
        "meta_mean_motion": 14.54901964,
        "meta_eccentricity": 0.0154906,
        "meta_inclination": 74.0413,
        "meta_ra_of_asc_node": 106.7125,
        "meta_arg_of_pericenter": 192.0591,
        "meta_mean_anomaly": 167.685,
        "meta_ephemeris_type": 0,
        "meta_classification_type": "U",
        "meta_norad_cat_id": 34823,
        "meta_element_set_no": 999,
        "meta_rev_at_epoch": 88347,
        "meta_bstar": 0.0013313,
        "meta_mean_motion_dot": 6.696e-05,
        "meta_mean_motion_ddot": 0,
        "tle_line1": "1 34823U 93036ABN 25344.39821992  .00006696  00000+0  13313-2 0  9991",
        "tle_line2": "2 34823  74.0413 106.7125 0154906 192.0591 167.6850 14.54901964883471"
      },
      "geometry": {
        "type": "Point",
        "coordinates": [
          -36.467104365899154,
          -64.85423519060772
        ]
      }
    },
    {
      "type": "Feature",
      "properties": {
        "norad_id": 34845,
        "name": "COSMOS 2251 DEB",
        "group": "cosmos-2251-debris",
        "lat": -71.0294683147145,
        "lon": 95.54037533975712,
        "alt_km": 732.8380179941596,
        "timestamp": "2025-12-10T18:57:00.460327+00:00",
        "meta_object_name": "COSMOS 2251 DEB",
        "meta_object_id": "1993-036ABP",
        "meta_epoch": "2025-12-09T20:04:05.418048",
        "meta_mean_motion": 14.45850049,
        "meta_eccentricity": 0.00222586,
        "meta_inclination": 74.0237,
        "meta_ra_of_asc_node": 153.7694,
        "meta_arg_of_pericenter": 315.2139,
        "meta_mean_anomaly": 44.7222,
        "meta_ephemeris_type": 0,
        "meta_classification_type": "U",
        "meta_norad_cat_id": 34845,
        "meta_element_set_no": 999,
        "meta_rev_at_epoch": 87424,
        "meta_bstar": 0.00046671234,
        "meta_mean_motion_dot": 1.636e-05,
        "meta_mean_motion_ddot": 0,
        "tle_line1": "1 34845U 93036ABP 25343.83617382  .00001636  00000+0  46671-3 0  9992",
        "tle_line2": "2 34845  74.0237 153.7694 0022258 315.2139  44.7222 14.45850049874243"
      },
      "geometry": {
        "type": "Point",
        "coordinates": [
          95.54037533975712,
          -71.0294683147145
        ]
      }
    }
  ]
}